[Satellite]
VERSION=1.1
NAME=LAGEOS 2
NICKNAME=LAGEOS 2
TLE1=1 22195U 92070B   17186.25216872 -.00000009  00000-0  00000-0 0  9993
TLE2=2 22195  52.6380 172.6242 0137193 198.1026  40.9192  6.47294392584008
